NORAD_CAT_ID,OBJECT_NAME,OBJECT_TYPE,EPOCH,MEAN_MOTION,ECCENTRICITY,INCLINATION,RA_OF_ASC_NODE,ARG_OF_PERICENTER,MEAN_ANOMALY,BSTAR,MEAN_MOTION_DOT,MEAN_MOTION_DDOT,TLE_LINE0,TLE_LINE1,TLE_LINE2,SEMIMAJOR_AXIS,PERIOD,APOGEE,PERIGEE,DECAYED
49454.0,STARLINK-3160,PAYLOAD,2023-05-23 15:38:16,15.08837265,0.0001208,53.2166,122.7401,88.2999,271.8132,4.4127e-05,4.14e-06,0.0,0 STARLINK-3160,1 49454U 21104AY  23143.65158220  .00000414  00000-0  44127-4 0  9997,2 49454  53.2166 122.7401 0001208  88.2999 271.8132 15.08837265 84634,6917.889,95.438,540.589,538.918,0.0
49454.0,STARLINK-3160,PAYLOAD,2023-05-24 05:56:44,15.0883777,0.0001137,53.2164,120.0631,91.8893,268.2229,9.5431e-05,1.231e-05,0.0,0 STARLINK-3160,1 49454U 21104AY  23144.24774221  .00001231  00000-0  95431-4 0  9990,2 49454  53.2164 120.0631 0001137  91.8893 268.2229 15.08837770 85800,6917.887,95.438,540.539,538.966,0.0
49454.0,STARLINK-3160,PAYLOAD,2023-05-25 21:41:23,15.08841667,0.0001174,53.217,112.6285,86.0809,274.0317,6.4187e-05,7.34e-06,0.0,0 STARLINK-3160,1 49454U 21104AY  23145.90374354  .00000734  00000-0  64187-4 0  9998,2 49454  53.2170 112.6285 0001174  86.0809 274.0317 15.08841667 84973,6917.875,95.437,540.552,538.928,0.0
49454.0,STARLINK-3160,PAYLOAD,2023-05-26 04:02:55,15.08845723,0.0001184,53.2168,111.4391,85.8177,274.2951,9.3724e-05,1.204e-05,0.0,0 STARLINK-3160,1 49454U 21104AY  23146.16869953  .00001204  00000-0  93724-4 0  9993,2 49454  53.2168 111.4391 0001184  85.8177 274.2951 15.08845723 86099,6917.863,95.437,540.547,538.909,0.0
49454.0,STARLINK-3160,PAYLOAD,2023-05-26 21:32:10,15.08839128,0.0001163,53.2166,108.1679,84.8655,275.247,4.653e-05,4.53e-06,0.0,0 STARLINK-3160,1 49454U 21104AY  23146.89734433  .00000453  00000-0  46530-4 0  9995,2 49454  53.2166 108.1679 0001163  84.8655 275.2470 15.08839128 85128,6917.883,95.438,540.553,538.944,0.0
49454.0,STARLINK-3160,PAYLOAD,2023-05-27 02:18:19,15.08839288,0.0001165,53.2167,107.2758,84.7893,275.3232,4.4203e-05,4.16e-06,0.0,0 STARLINK-3160,1 49454U 21104AY  23147.09606423  .00000416  00000-0  44203-4 0  9999,2 49454  53.2167 107.2758 0001165  84.7893 275.3232 15.08839288 86239,6917.883,95.438,540.553,538.942,0.0
49454.0,STARLINK-3160,PAYLOAD,2023-05-27 07:04:29,15.08840158,0.0001059,53.2166,106.3838,87.1007,273.0107,5.1751e-05,5.36e-06,0.0,0 STARLINK-3160,1 49454U 21104AY  23147.29478284  .00000536  00000-0  51751-4 0  9992,2 49454  53.2166 106.3838 0001059  87.1007 273.0107 15.08840158 85180,6917.88,95.438,540.478,539.012,0.0
49454.0,STARLINK-3160,PAYLOAD,2023-05-28 02:09:07,15.08836041,0.0001174,53.2163,102.8146,95.4847,264.6279,-5.79e-05,-1.209e-05,0.0,0 STARLINK-3160,1 49454U 21104AY  23148.08966989 -.00001209  00000-0 -57900-4 0  9996,2 49454  53.2163 102.8146 0001174  95.4847 264.6279 15.08836041 86387,6917.892,95.438,540.57,538.945,0.0
49454.0,STARLINK-3160,PAYLOAD,2023-05-28 03:44:30,15.0883844,0.0001124,53.2162,102.517,94.0584,266.0537,-3.6533e-05,-8.69e-06,0.0,0 STARLINK-3160,1 49454U 21104AY  23148.15590793 -.00000869  00000-0 -36533-4 0  9990,2 49454  53.2162 102.5170 0001124  94.0584 266.0537 15.08838440 85318,6917.885,95.438,540.528,538.973,0.0
49454.0,STARLINK-3160,PAYLOAD,2023-05-28 21:13:44,15.08842889,0.0001204,53.2161,99.2462,91.3422,268.7708,1.7763e-05,-5e-08,0.0,0 STARLINK-3160,1 49454U 21104AY  23148.88454417 -.00000005  00000-0  17763-4 0  9997,2 49454  53.2161  99.2462 0001204  91.3422 268.7708 15.08842889 85426,6917.872,95.437,540.569,538.904,0.0
49454.0,STARLINK-3160,PAYLOAD,2023-05-29 03:35:16,15.08846622,0.0001139,53.2167,98.0586,87.0806,273.0316,9.9212e-05,1.292e-05,0.0,0 STARLINK-3160,1 49454U 21104AY  23149.14949875  .00001292  00000-0  99212-4 0  9991,2 49454  53.2167  98.0586 0001139  87.0806 273.0316 15.08846622 86548,6917.86,95.437,540.513,538.937,0.0
49454.0,STARLINK-3160,PAYLOAD,2023-05-29 06:46:02,15.0884807,0.0001154,53.2167,97.4637,87.073,273.0394,0.00010707,1.417e-05,0.0,0 STARLINK-3160,1 49454U 21104AY  23149.28197707  .00001417  00000-0  10707-3 0  9995,2 49454  53.2167  97.4637 0001154  87.0730 273.0394 15.08848070 85488,6917.856,95.437,540.519,538.922,0.0
49454.0,STARLINK-3160,PAYLOAD,2023-05-29 21:04:32,15.0882656,8.69e-05,53.2172,94.7881,79.1574,280.9516,-3.6886e-05,-8.74e-06,0.0,0 STARLINK-3160,1 49454U 21104AY  23149.87815780 -.00000874  00000-0 -36886-4 0  9993,2 49454  53.2172  94.7881 0000869  79.1574 280.9516 15.08826560 85578,6917.921,95.438,540.388,539.185,0.0
49454.0,STARLINK-3160,PAYLOAD,2023-05-30 03:26:05,15.08831973,0.0001123,53.2172,93.5986,95.4215,264.6905,7.8609e-06,-1.63e-06,0.0,0 STARLINK-3160,1 49454U 21104AY  23150.14311447 -.00000163  00000-0  78609-5 0  9996,2 49454  53.2172  93.5986 0001123  95.4215 264.6905 15.08831973 86697,6917.905,95.438,540.547,538.993,0.0
49454.0,STARLINK-3160,PAYLOAD,2023-05-30 05:01:28,15.08833644,0.0001151,53.2173,93.301,94.6024,265.51,2.2669e-05,7.3e-07,0.0,0 STARLINK-3160,1 49454U 21104AY  23150.20935342  .00000073  00000-0  22669-4 0  9992,2 49454  53.2173  93.3010 0001151  94.6024 265.5100 15.08833644 85620,6917.9,95.438,540.561,538.969,0.0
49454.0,STARLINK-3160,PAYLOAD,2023-05-31 01:41:28,15.08843631,0.0001124,53.2175,89.4351,95.6301,264.482,1.0351e-05,-1.23e-06,0.0,0 STARLINK-3160,1 49454U 21104AY  23151.07046958 -.00000123  00000-0  10351-4 0  9996,2 49454  53.2175  89.4351 0001124  95.6301 264.4820 15.08843631 86833,6917.869,95.437,540.512,538.957,0.0
49454.0,STARLINK-3160,PAYLOAD,2023-05-31 04:52:14,15.08848572,0.0001157,53.2173,88.8406,97.8212,262.2912,5.7168e-05,6.22e-06,0.0,0 STARLINK-3160,1 49454U 21104AY  23151.20294520  .00000622  00000-0  57168-4 0  9991,2 49454  53.2173  88.8406 0001157  97.8212 262.2912 15.08848572 85775,6917.854,95.437,540.52,538.919,0.0
49454.0,STARLINK-3160,PAYLOAD,2023-06-01 01:32:16,15.08835854,0.0001228,53.2171,84.9749,104.6189,255.4939,8e-05,9.85e-06,0.0,0 STARLINK-3160,1 49454U 21104AY  23152.06407421  .00000985  00000-0  80000-4 0  9995,2 49454  53.2171  84.9749 0001228 104.6189 255.4939 15.08835854 86985,6917.893,95.438,540.608,538.909,0.0
49454.0,STARLINK-3160,PAYLOAD,2023-06-01 04:43:02,15.08839002,0.0001214,53.2172,84.38,101.9481,258.1647,0.00010111,1.322e-05,0.0,0 STARLINK-3160,1 49454U 21104AY  23152.19655212  .00001322  00000-0  10111-3 0  9993,2 49454  53.2172  84.3800 0001214 101.9481 258.1647 15.08839002 85926,6917.883,95.438,540.588,538.909,0.0
49454.0,STARLINK-3160,PAYLOAD,2023-06-02 04:33:49,15.0884597,0.0001305,53.2181,79.9175,97.4819,262.6321,4.0616e-05,3.59e-06,0.0,0 STARLINK-3160,1 49454U 21104AY  23153.19015059  .00000359  00000-0  40616-4 0  9996,2 49454  53.2181  79.9175 0001305  97.4819 262.6321 15.08845970 87153,6917.862,95.437,540.63,538.824,0.0
49454.0,STARLINK-3160,PAYLOAD,2023-06-03 04:24:36,15.08844328,0.0001427,53.2183,75.4551,116.6431,243.4708,3.0268e-05,1.94e-06,0.0,0 STARLINK-3160,1 49454U 21104AY  23154.18375112  .00000194  00000-0  30268-4 0  9994,2 49454  53.2183  75.4551 0001427 116.6431 243.4708 15.08844328 87302,6917.867,95.437,540.719,538.745,0.0
49454.0,STARLINK-3160,PAYLOAD,2023-06-03 21:53:50,15.08844438,0.0001243,53.2169,72.1857,99.4174,260.6959,1.5334e-05,-4.4e-07,0.0,0 STARLINK-3160,1 49454U 21104AY  23154.91239262 -.00000044  00000-0  15334-4 0  9992,2 49454  53.2169  72.1857 0001243  99.4174 260.6959 15.08844438 86330,6917.867,95.437,540.592,538.872,0.0
49454.0,STARLINK-3160,PAYLOAD,2023-06-04 04:15:22,15.08846445,0.000133,53.2183,70.9979,98.6642,261.45,9.0972e-05,1.16e-05,0.0,0 STARLINK-3160,1 49454U 21104AY  23155.17734884  .00001160  00000-0  90972-4 0  9991,2 49454  53.2183  70.9979 0001330  98.6642 261.4500 15.08846445 86370,6917.861,95.437,540.646,538.806,0.0
49454.0,STARLINK-3160,PAYLOAD,2023-06-04 18:33:52,15.08837421,0.0001308,53.2193,68.3231,97.6125,262.5016,-3.4192e-05,-8.32e-06,0.0,0 STARLINK-3160,1 49454U 21104AY  23155.77351913 -.00000832  00000-0 -34192-4 0  9994,2 49454  53.2193  68.3231 0001308  97.6125 262.5016 15.08837421 87541,6917.888,95.438,540.658,538.848,0.0
49454.0,STARLINK-3160,PAYLOAD,2023-06-04 21:44:38,15.08840473,0.000126,53.2191,67.7295,94.6749,265.4387,-3.3612e-05,-8.23e-06,0.0,0 STARLINK-3160,1 49454U 21104AY  23155.90599690 -.00000823  00000-0 -33612-4 0  9991,2 49454  53.2191  67.7295 0001260  94.6749 265.4387 15.08840473 86484,6917.879,95.438,540.616,538.872,0.0
49454.0,STARLINK-3160,PAYLOAD,2023-06-05 04:06:10,15.08844027,0.0001281,53.2187,66.5379,97.852,262.2617,2.8791e-05,1.7e-06,0.0,0 STARLINK-3160,1 49454U 21104AY  23156.17095209  .00000170  00000-0  28791-4 0  9993,2 49454  53.2187  66.5379 0001281  97.8520 262.2617 15.08844027 87609,6917.868,95.437,540.619,538.847,0.0
49454.0,STARLINK-3160,PAYLOAD,2023-06-05 18:24:38,15.08837819,0.0001175,53.2186,63.8618,93.1663,266.9463,-3.7602e-06,-3.48e-06,0.0,0 STARLINK-3160,1 49454U 21104AY  23156.76711784 -.00000348  00000-0 -37602-5 0  9992,2 49454  53.2186  63.8618 0001175  93.1663 266.9463 15.08837819 86614,6917.887,95.438,540.565,538.939,0.0
49454.0,STARLINK-3160,PAYLOAD,2023-06-06 02:21:33,15.08854985,0.0001397,53.219,62.3789,97.7764,262.3387,-7.8394e-05,-1.536e-05,0.0,0 STARLINK-3160,1 49454U 21104AY  23157.09830870 -.00001536  00000-0 -78394-4 0  9999,2 49454  53.2190  62.3789 0001397  97.7764 262.3387 15.08854985 87743,6917.835,95.437,540.666,538.733,0.0
49454.0,STARLINK-3160,PAYLOAD,2023-06-06 03:56:57,15.08845753,0.0001117,53.2188,62.0771,77.6447,282.467,7.2057e-05,8.59e-06,0.0,0 STARLINK-3160,1 49454U 21104AY  23157.16455083  .00000859  00000-0  72057-4 0  9991,2 49454  53.2188  62.0771 0001117  77.6447 282.4670 15.08845753 87755,6917.863,95.437,540.501,538.955,0.0
49454.0,STARLINK-3160,PAYLOAD,2023-06-06 18:15:26,15.0883041,0.0001118,53.2183,59.3998,81.973,278.1389,-3.5019e-05,-8.45e-06,0.0,0 STARLINK-3160,1 49454U 21104AY  23157.76072575 -.00000845  00000-0 -35019-4 0  9992,2 49454  53.2183  59.3998 0001118  81.9730 278.1389 15.08830410 87847,6917.91,95.438,540.548,539.001,0.0
